{
    "links": {
        "self": "http://www.neowsapp.com/rest/v1/neo/3690383?api_key=iIulBulltgU6a56xZRHN4H3l9WmuAYTsLGpBGhQ2"
    },
    "id": "3690383",
    "neo_reference_id": "3690383",
    "name": "(2014 SZ144)",
    "designation": "2014 SZ144",
    "nasa_jpl_url": "http://ssd.jpl.nasa.gov/sbdb.cgi?sstr=3690383",
    "absolute_magnitude_h": 25.3,
    "estimated_diameter": {
        "kilometers": {
            "estimated_diameter_min": 0.0231502122,
            "estimated_diameter_max": 0.0517654482
        },
        "meters": {
            "estimated_diameter_min": 23.150212221,
            "estimated_diameter_max": 51.7654482198
        },
        "miles": {
            "estimated_diameter_min": 0.0143848705,
            "estimated_diameter_max": 0.0321655483
        },
        "feet": {
            "estimated_diameter_min": 75.9521422633,
            "estimated_diameter_max": 169.8341531374
        }
    },
    "is_potentially_hazardous_asteroid": false,
    "close_approach_data": [
        {
            "close_approach_date": "2014-09-29",
            "close_approach_date_full": "2014-Sep-29 21:09",
            "epoch_date_close_approach": 1412024940000,
            "relative_velocity": {
                "kilometers_per_second": "13.1438143433",
                "kilometers_per_hour": "47317.7316360218",
                "miles_per_hour": "29401.3983046159"
            },
            "miss_distance": {
                "astronomical": "0.0099983341",
                "lunar": "3.8893519649",
                "kilometers": "1495729.484908367",
                "miles": "929403.2049227846"
            },
            "orbiting_body": "Earth"
        }
    ],
    "orbital_data": {
        "orbit_id": "10",
        "orbit_determination_date": "2017-04-06 08:38:31",
        "first_observation_date": "2014-09-19",
        "last_observation_date": "2014-09-29",
        "data_arc_in_days": 10,
        "observations_used": 55,
        "orbit_uncertainty": "7",
        "minimum_orbit_intersection": ".000836073",
        "jupiter_tisserand_invariant": "3.266",
        "epoch_osculation": "2459000.5",
        "eccentricity": ".6294517639417692",
        "semi_major_axis": "2.338955463098957",
        "inclination": "1.973106697115082",
        "ascending_node_longitude": "186.4886069586301",
        "orbital_period": "1306.566008281251",
        "perihelion_distance": ".866695821070081",
        "perihelion_argument": "230.5958022544379",
        "aphelion_distance": "3.811215105127833",
        "perihelion_time": "2459577.512864396941",
        "mean_anomaly": "201.0148206318682",
        "mean_motion": ".2755314295016516",
        "equinox": "J2000",
        "orbit_class": {
            "orbit_class_type": "APO",
            "orbit_class_description": "Near-Earth asteroid orbits which cross the Earth’s orbit similar to that of 1862 Apollo",
            "orbit_class_range": "a (semi-major axis) > 1.0 AU; q (perihelion) < 1.017 AU"
        }
    },
    "is_sentry_object": false
}